LDPE-2                  
1 54219U 22144A   26064.96054303 -.00000359  00000+0  00000+0 0  9998
2 54219   5.3920  64.2940 0000425 237.1217 312.8981  1.00557404 10808
EUTELSAT HOTBIRD 13G    
1 54225U 22146A   26065.22762189  .00000082  00000+0  00000+0 0  9997
2 54225   0.0448 226.9997 0001923 310.9978  80.8849  1.00272265  6437
ZHONGXING-19            
1 54230U 22148A   26065.25734869 -.00000086  00000+0  00000+0 0  9997
2 54230   0.0237  99.8467 0002578 245.3926  74.5877  1.00271755 12340
GALAXY 31 (G-31)        
1 54243U 22153A   26064.32405672  .00000005  00000+0  00000+0 0  9991
2 54243   0.0114 186.2478 0001490 168.2279 164.2342  1.00272772  6096
GALAXY 32 (G-32)        
1 54244U 22153B   26063.18586578  .00000000  00000+0  00000+0 0  9995
2 54244   0.0222 132.7365 0003004 225.3208 139.8078  1.00267915 12092
EUTELSAT 10B            
1 54259U 22157A   26064.79909567  .00000062  00000+0  00000+0 0  9998
2 54259   0.0578 102.8111 0001354 340.6012  17.7426  1.00272542 11990
GALAXY 35 (G-35)        
1 54741U 22170A   26065.18377969 -.00000167  00000+0  00000+0 0  9995
2 54741   0.0105 186.7077 0002021 161.1903 149.0565  1.00270967 11869
GALAXY 36 (G-36)        
1 54742U 22170B   26065.27866877 -.00000190  00000+0  00000+0 0  9993
2 54742   0.0187 136.7972 0002101 262.6147 135.8959  1.00272437 11746
METEOSAT-12 (MTG-I1)    
1 54743U 22170C   26065.15360823 -.00000013  00000+0  00000+0 0  9995
2 54743   0.7030  21.6583 0002050 287.1766 270.0306  1.00269870 11940
SHIJIAN-23 (SJ-23)      
1 55131U 23002A   26064.76999501 -.00000314  00000+0  00000+0 0  9993
2 55131   3.4519  79.6379 0005836 262.4648 229.1645  1.00487730 11476
APSTAR-6E               
1 55239U 23005A   26065.25154200 -.00000323  00000+0  00000+0 0  9999
2 55239   0.0487 248.3880 0001249  61.7535  78.3801  1.00271073 17658
USA 342                 
1 55263U 23008A   26062.80512854  .00000000  00000+0  00000+0 0  9991
2 55263   0.0190 154.7400 0000421 181.7368 138.7753  1.00270437 11465
ELEKTRO-L 4             
1 55506U 23016A   26065.08447666 -.00000065  00000+0  00000+0 0  9993
2 55506   0.0979 294.2920 0001771 352.9001  72.7607  1.00272100 11297
AMAZONAS NEXUS          
1 55508U 23017A   26063.15017037 -.00000295  00000+0  00000+0 0  9992
2 55508   0.0414  44.7348 0004450 317.0979 153.1232  1.00275833  5992
ZHONGXING-26            
1 55686U 23023A   26065.32113564 -.00000358  00000+0  00000+0 0  9999
2 55686   0.0658  72.6881 0003531 326.8421   5.2012  1.00273528 11191
LUCH-5X (OLYMP-K 2)     
1 55841U 23031A   26064.72326332  .00000026  00000+0  00000+0 0  9994
2 55841   0.0269  87.8443 0001959 121.1189 276.8518  1.00272965 10902
GAOFEN-13 02            
1 55912U 23036A   26065.21225308 -.00000223  00000+0  00000+0 0  9994
2 55912   1.0317 348.0044 0005271 334.3797  66.1350  1.00275077 11068
